      2.10          N: GNSS NAV DATA                        RINEX VERSION / TYPE
fic2rin                                 12/02/2022 00:17:33 PGM / RUN BY / DATE
                                                            END OF HEADER
18 22 12  1  4  0  0.0 -.420231372118D-04 -.143245415529D-10  .000000000000D+00
     .102000000000D+03  .316250000000D+02  .425874882255D-08  .979086119370D+00
     .170990824699D-05  .296574493404D-02  .799633562565D-05  .515371307373D+04
     .360000000000D+06  .298023223877D-07 -.757082021997D+00 -.614672899246D-07
     .972981684067D+00  .228625000000D+03 -.312967088651D+01 -.804462080503D-08
     .885751180806D-10  .100000000000D+01  .223800000000D+04  .000000000000D+00
     .240000000000D+01  .000000000000D+00 -.838190317154D-08  .358000000000D+03
     .352800000000D+06  .400000000000D+01
11 22 12  1  4  0  0.0 -.487258657813D-04 -.670752342558D-11  .000000000000D+00
     .119000000000D+03  .465000000000D+02  .439411160381D-08  .245457747043D+01
     .239349901676D-05  .808121403679D-03  .822544097900D-05  .515367651367D+04
     .360000000000D+06 -.558793544769D-08 -.723603269026D+00 -.186264514923D-08
     .964449180722D+00  .222875000000D+03 -.283992709893D+01 -.811462372094D-08
     .196436753808D-09  .100000000000D+01  .223800000000D+04  .000000000000D+00
     .240000000000D+01  .000000000000D+00 -.884756445885D-08  .887000000000D+03
     .352800000000D+06  .400000000000D+01
23 22 12  1  4  0  0.0 -.550411641598D-06  .454747350886D-12  .000000000000D+00
     .153000000000D+03 -.163125000000D+02  .456126142342D-08 -.112723601905D-01
    -.103004276752D-05  .290981691796D-02  .459142029285D-05  .515363422012D+04
     .360000000000D+06  .521540641785D-07  .242126793027D+00  .614672899246D-07
     .971563993563D+00  .298000000000D+03  .309487178707D+01 -.827713048999D-08
     .207151485834D-10  .100000000000D+01  .223800000000D+04  .000000000000D+00
     .240000000000D+01  .000000000000D+00 -.838190317154D-08  .665000000000D+03
     .352800000000D+06  .400000000000D+01
4  22 12  1  5 29 36.0 -.767912715673D-04  .693489710102D-11  .000000000000D+00
     .300000000000D+01 -.619375000000D+02  .446447167745D-08 -.279450044093D+01
    -.327266752720D-05  .219722173642D-02  .877492129803D-05  .515373575592D+04
     .365376000000D+06 -.372529029846D-07  .135234468021D+01  .745058059692D-08
     .961673523345D+00  .211531250000D+03 -.311779482684D+01 -.798497546342D-08
    -.127862468842D-09  .100000000000D+01  .223800000000D+04  .000000000000D+00
     .240000000000D+01  .000000000000D+00 -.465661287308D-08  .515000000000D+03
     .358200000000D+06  .400000000000D+01
23 22 12  1  5 29 36.0 -.548083335161D-06  .454747350886D-12  .000000000000D+00
     .154000000000D+03 -.143437500000D+02  .462769276198D-08  .772826887022D+00
    -.799074769020D-06  .291020411532D-02  .430457293987D-05  .515363500214D+04
     .365376000000D+06  .186264514923D-08  .242082023345D+00  .149011611938D-07
     .971563877992D+00  .300468750000D+03  .309492592235D+01 -.833177562333D-08
     .325013538118D-10  .100000000000D+01  .223800000000D+04  .000000000000D+00
     .240000000000D+01  .000000000000D+00 -.838190317154D-08  .666000000000D+03
     .358200000000D+06  .400000000000D+01
2  22 12  1  6  0  0.0 -.635287724435D-03  .181898940355D-11  .000000000000D+00
     .800000000000D+01  .331875000000D+02  .447054335893D-08  .919773148906D+00
     .150687992573D-05  .200302856974D-01  .923126935959D-05  .515369809532D+04
     .367200000000D+06 -.204890966415D-06 -.855897500801D+00 -.335276126862D-06
     .966868304483D+00  .209718750000D+03 -.135828529648D+01 -.837320592049D-08
     .176793078427D-09  .100000000000D+01  .223800000000D+04  .000000000000D+00
     .240000000000D+01  .000000000000D+00 -.176951289177D-07  .800000000000D+01
     .360000000000D+06  .400000000000D+01
1  22 12  1  6  0  0.0  .243970192969D-03 -.545696821064D-11  .000000000000D+00
     .910000000000D+02  .276875000000D+02  .384051711581D-08  .186197465184D+01
     .138394534588D-05  .120820681332D-01  .817514955997D-05  .515366036606D+04
     .367200000000D+06 -.307336449623D-06 -.760719462470D+00 -.184401869774D-06
     .989121349720D+00  .237562500000D+03  .940524321482D+00 -.779246744469D-08
     .202151277555D-09  .100000000000D+01  .223800000000D+04  .000000000000D+00
     .340000000000D+01  .000000000000D+00  .465661287308D-08  .910000000000D+02
     .360000000000D+06  .400000000000D+01
5  22 12  1  6  0  0.0 -.106364488602D-03 -.147792889038D-11  .000000000000D+00
     .110000000000D+02 -.212187500000D+02  .468733810359D-08 -.188692373221D+01
    -.101886689663D-05  .586198212113D-02  .448524951935D-05  .515357069016D+04
     .367200000000D+06  .577419996262D-07  .226849690206D+00  .745058059692D-08
     .963717178940D+00  .293312500000D+03  .114244700968D+01 -.829355974577D-08
     .120004998690D-09  .100000000000D+01  .223800000000D+04  .000000000000D+00
     .240000000000D+01  .000000000000D+00 -.111758708954D-07  .110000000000D+02
     .360000000000D+06  .400000000000D+01
3  22 12  1  6  0  0.0 -.374818220735D-03 -.113686837722D-11  .000000000000D+00
     .920000000000D+02 -.221562500000D+02  .441125517506D-08  .731654005652D+00
    -.120885670185D-05  .442180072423D-02  .477582216263D-05  .515376689148D+04
     .367200000000D+06  .931322574615D-08  .271058461599D+00  .670552253723D-07
     .976677411586D+00  .294312500000D+03  .104970961756D+01 -.824070040111D-08
     .592881838765D-10  .100000000000D+01  .223800000000D+04  .000000000000D+00
     .340000000000D+01  .000000000000D+00  .186264514923D-08  .920000000000D+02
     .360000000000D+06  .400000000000D+01
20 22 12  1  6  0  0.0  .466509256512D-03 -.250111042988D-11  .000000000000D+00
     .130000000000D+02 -.113125000000D+02  .503163815935D-08  .288033440016D+01
    -.635161995888D-06  .472269149031D-02  .450387597084D-05  .515369643211D+04
     .367200000000D+06 -.894069671631D-07  .107611206462D+00 -.689178705215D-07
     .946179082100D+00  .285750000000D+03 -.301202495294D+01 -.845535219936D-08
     .125719522437D-09  .100000000000D+01  .223800000000D+04  .000000000000D+00
     .240000000000D+01  .000000000000D+00 -.838190317154D-08  .130000000000D+02
     .360000000000D+06  .400000000000D+01
13 22 12  1  6  0  0.0  .434187706560D-03  .670752342558D-11  .000000000000D+00
     .160000000000D+02 -.659375000000D+02  .417374528182D-08 -.266902968917D+01
    -.337883830070D-05  .669869955163D-02  .104121863842D-04  .515367733002D+04
     .367200000000D+06  .577419996262D-07  .145455069110D+01 -.335276126862D-07
     .968839583669D+00  .181125000000D+03  .953393203671D+00 -.779318176016D-08
    -.126433837905D-09  .100000000000D+01  .223800000000D+04  .000000000000D+00
     .240000000000D+01  .000000000000D+00 -.116415321827D-07  .160000000000D+02
     .360000000000D+06  .400000000000D+01
8  22 12  1  6  0  0.0 -.964435748756D-04 -.181898940355D-11  .000000000000D+00
     .370000000000D+02 -.142500000000D+02  .456590447396D-08 -.215224994242D+01
    -.938773155212D-06  .787488347851D-02  .802613794804D-05  .515362356567D+04
     .367200000000D+06 -.689178705215D-07 -.184791656208D+01 -.134110450745D-06
     .960998000441D+00  .227937500000D+03  .169176267625D+00 -.808747973314D-08
    -.176793078427D-09  .100000000000D+01  .223800000000D+04  .000000000000D+00
     .240000000000D+01  .000000000000D+00  .512227416039D-08  .370000000000D+02
     .360000000000D+06  .400000000000D+01
14 22 12  1  6  0  0.0 -.752341002226D-04  .579802872380D-11  .000000000000D+00
     .330000000000D+02  .314687500000D+02  .501020869530D-08  .493380342815D+00
     .164285302162D-05  .242669787258D-02  .554323196411D-05  .515365585709D+04
     .367200000000D+06  .111758708954D-07 -.283628372486D+01  .204890966415D-07
     .950866167758D+00  .267187500000D+03 -.305353601855D+01 -.839749264642D-08
    -.450018745087D-10  .100000000000D+01  .223800000000D+04  .000000000000D+00
     .240000000000D+01  .000000000000D+00 -.791624188423D-08  .330000000000D+02
     .360000000000D+06  .400000000000D+01
7  22 12  1  6  0  0.0  .280532985926D-03 -.500222085975D-11  .000000000000D+00
     .350000000000D+02  .257500000000D+02  .475341228442D-08  .124583722057D+01
     .145472586155D-05  .164930339670D-01  .104531645775D-04  .515361775589D+04
     .367200000000D+06 -.305473804474D-06  .236899492391D+01  .819563865662D-07
     .950480084659D+00  .177500000000D+03 -.223619797058D+01 -.829784563858D-08
     .271439877989D-10  .100000000000D+01  .223800000000D+04  .000000000000D+00
     .240000000000D+01  .000000000000D+00 -.111758708954D-07  .350000000000D+02
     .360000000000D+06  .400000000000D+01
